{
  "type": "FeatureCollection",
  "features": [
    {
      "type": "Feature",
      "properties": {
        "norad_id": 46805,
        "name": "COSMOS 2547 (705K)",
        "group": "glo-ops",
        "lat": -55.952677295564904,
        "lon": 63.60498737047526,
        "alt_km": 19120.937150290687,
        "timestamp": "2025-12-06T09:34:17.174983+00:00",
        "meta_object_name": "COSMOS 2547 (705K)",
        "meta_object_id": "2020-075A",
        "meta_epoch": "2025-12-04T04:48:34.576416",
        "meta_mean_motion": 2.13099889,
        "meta_eccentricity": 0.0006264,
        "meta_inclination": 64.5958,
        "meta_ra_of_asc_node": 198.9817,
        "meta_arg_of_pericenter": 229.2044,
        "meta_mean_anomaly": 130.8379,
        "meta_ephemeris_type": 0,
        "meta_classification_type": "U",
        "meta_norad_cat_id": 46805,
        "meta_element_set_no": 999,
        "meta_rev_at_epoch": 3975,
        "meta_bstar": 0,
        "meta_mean_motion_dot": 1.01e-06,
        "meta_mean_motion_ddot": 0,
        "tle_line1": "1 46805U 20075A   25338.20040019  .00000101  00000+0  00000+0 0  9994",
        "tle_line2": "2 46805  64.5958 198.9817 0006264 229.2044 130.8379  2.13099889 39750"
      },
      "geometry": {
        "type": "Point",
        "coordinates": [
          63.60498737047526,
          -55.952677295564904
        ]
      }
    },
    {
      "type": "Feature",
      "properties": {
        "norad_id": 52984,
        "name": "COSMOS 2557 (706K)",
        "group": "glo-ops",
        "lat": 51.66759082342527,
        "lon": 103.9639096989119,
        "alt_km": 19156.370905783337,
        "timestamp": "2025-12-06T09:34:17.174995+00:00",
        "meta_object_name": "COSMOS 2557 (706K)",
        "meta_object_id": "2022-075A",
        "meta_epoch": "2025-12-04T08:46:35.993568",
        "meta_mean_motion": 2.13101723,
        "meta_eccentricity": 0.0013727,
        "meta_inclination": 64.4144,
        "meta_ra_of_asc_node": 321.3461,
        "meta_arg_of_pericenter": 276.6628,
        "meta_mean_anomaly": 83.1807,
        "meta_ephemeris_type": 0,
        "meta_classification_type": "U",
        "meta_norad_cat_id": 52984,
        "meta_element_set_no": 999,
        "meta_rev_at_epoch": 2656,
        "meta_bstar": 0,
        "meta_mean_motion_dot": -4.7e-07,
        "meta_mean_motion_ddot": 0,
        "tle_line1": "1 52984U 22075A   25338.36569437 -.00000047  00000+0  00000+0 0  9998",
        "tle_line2": "2 52984  64.4144 321.3461 0013727 276.6628  83.1807  2.13101723 26566"
      },
      "geometry": {
        "type": "Point",
        "coordinates": [
          103.9639096989119,
          51.66759082342527
        ]
      }
    },
    {
      "type": "Feature",
      "properties": {
        "norad_id": 54031,
        "name": "COSMOS 2559 (707K)",
        "group": "glo-ops",
        "lat": -62.10960616889848,
        "lon": -153.63745141016076,
        "alt_km": 19123.88503782448,
        "timestamp": "2025-12-06T09:34:17.175006+00:00",
        "meta_object_name": "COSMOS 2559 (707K)",
        "meta_object_id": "2022-130A",
        "meta_epoch": "2025-12-03T17:10:26.893920",
        "meta_mean_motion": 2.13101235,
        "meta_eccentricity": 0.00120262,
        "meta_inclination": 64.3873,
        "meta_ra_of_asc_node": 321.4588,
        "meta_arg_of_pericenter": 192.7508,
        "meta_mean_anomaly": 167.2215,
        "meta_ephemeris_type": 0,
        "meta_classification_type": "U",
        "meta_norad_cat_id": 54031,
        "meta_element_set_no": 999,
        "meta_rev_at_epoch": 2452,
        "meta_bstar": 0,
        "meta_mean_motion_dot": -4.4e-07,
        "meta_mean_motion_ddot": 0,
        "tle_line1": "1 54031U 22130A   25337.71558905 -.00000044  00000+0  00000+0 0  9998",
        "tle_line2": "2 54031  64.3873 321.4588 0012026 192.7508 167.2215  2.13101235 24525"
      },
      "geometry": {
        "type": "Point",
        "coordinates": [
          -153.63745141016076,
          -62.10960616889848
        ]
      }
    },
    {
      "type": "Feature",
      "properties": {
        "norad_id": 54377,
        "name": "COSMOS 2564 (761)",
        "group": "glo-ops",
        "lat": 16.151655644430434,
        "lon": -153.02672219106594,
        "alt_km": 19150.27218286138,
        "timestamp": "2025-12-06T09:34:17.175018+00:00",
        "meta_object_name": "COSMOS 2564 (761)",
        "meta_object_id": "2022-161A",
        "meta_epoch": "2025-12-05T10:29:08.612736",
        "meta_mean_motion": 2.13101961,
        "meta_eccentricity": 0.00086904,
        "meta_inclination": 64.7377,
        "meta_ra_of_asc_node": 199.1416,
        "meta_arg_of_pericenter": 205.9281,
        "meta_mean_anomaly": 154.1217,
        "meta_ephemeris_type": 0,
        "meta_classification_type": "U",
        "meta_norad_cat_id": 54377,
        "meta_element_set_no": 999,
        "meta_rev_at_epoch": 2350,
        "meta_bstar": 0,
        "meta_mean_motion_dot": 8.7e-07,
        "meta_mean_motion_ddot": 0,
        "tle_line1": "1 54377U 22161A   25339.43690524  .00000087  00000+0  00000+0 0  9996",
        "tle_line2": "2 54377  64.7377 199.1416 0008690 205.9281 154.1217  2.13101961 23508"
      },
      "geometry": {
        "type": "Point",
        "coordinates": [
          -153.02672219106594,
          16.151655644430434
        ]
      }
    },
    {
      "type": "Feature",
      "properties": {
        "norad_id": 57517,
        "name": "COSMOS 2569 (703K)",
        "group": "glo-ops",
        "lat": 6.962886241501778,
        "lon": 82.36588544752448,
        "alt_km": 19125.21342214865,
        "timestamp": "2025-12-06T09:34:17.175029+00:00",
        "meta_object_name": "COSMOS 2569 (703K)",
        "meta_object_id": "2023-114A",
        "meta_epoch": "2025-12-01T16:42:34.469856",
        "meta_mean_motion": 2.13103822,
        "meta_eccentricity": 0.0010109,
        "meta_inclination": 65.1883,
        "meta_ra_of_asc_node": 79.2867,
        "meta_arg_of_pericenter": 287.0179,
        "meta_mean_anomaly": 72.8703,
        "meta_ephemeris_type": 0,
        "meta_classification_type": "U",
        "meta_norad_cat_id": 57517,
        "meta_element_set_no": 999,
        "meta_rev_at_epoch": 1805,
        "meta_bstar": 0,
        "meta_mean_motion_dot": -1.6e-07,
        "meta_mean_motion_ddot": 0,
        "tle_line1": "1 57517U 23114A   25335.69623229 -.00000016  00000+0  00000+0 0  9999",
        "tle_line2": "2 57517  65.1883  79.2867 0010109 287.0179  72.8703  2.13103822 18055"
      },
      "geometry": {
        "type": "Point",
        "coordinates": [
          82.36588544752448,
          6.962886241501778
        ]
      }
    },
    {
      "type": "Feature",
      "properties": {
        "norad_id": 63130,
        "name": "COSMOS 2584 (704K)",
        "group": "glo-ops",
        "lat": 64.6028540995946,
        "lon": -179.85575503117857,
        "alt_km": 19132.632422181643,
        "timestamp": "2025-12-06T09:34:17.175055+00:00",
        "meta_object_name": "COSMOS 2584 (704K)",
        "meta_object_id": "2025-042A",
        "meta_epoch": "2025-12-05T08:05:04.392960",
        "meta_mean_motion": 2.13102926,
        "meta_eccentricity": 0.00075778,
        "meta_inclination": 64.9722,
        "meta_ra_of_asc_node": 79.3982,
        "meta_arg_of_pericenter": 214.8728,
        "meta_mean_anomaly": 145.0805,
        "meta_ephemeris_type": 0,
        "meta_classification_type": "U",
        "meta_norad_cat_id": 63130,
        "meta_element_set_no": 999,
        "meta_rev_at_epoch": 591,
        "meta_bstar": 0,
        "meta_mean_motion_dot": -2.1e-07,
        "meta_mean_motion_ddot": 0,
        "tle_line1": "1 63130U 25042A   25339.33685640 -.00000021  00000+0  00000+0 0  9995",
        "tle_line2": "2 63130  64.9722  79.3982 0007577 214.8728 145.0805  2.13102926  5915"
      },
      "geometry": {
        "type": "Point",
        "coordinates": [
          -179.85575503117857,
          64.6028540995946
        ]
      }
    },
    {
      "type": "Feature",
      "properties": {
        "norad_id": 65590,
        "name": "COSMOS 2596 (708K)",
        "group": "glo-ops",
        "lat": -29.60060658705286,
        "lon": 157.23515847703973,
        "alt_km": 19135.10517760937,
        "timestamp": "2025-12-06T09:34:17.175068+00:00",
        "meta_object_name": "COSMOS 2596 (708K)",
        "meta_object_id": "2025-206B",
        "meta_epoch": "2025-12-05T10:56:18.216960",
        "meta_mean_motion": 2.13100168,
        "meta_eccentricity": 0.00140237,
        "meta_inclination": 64.7483,
        "meta_ra_of_asc_node": 321.7274,
        "meta_arg_of_pericenter": 304.902,
        "meta_mean_anomaly": 264.8431,
        "meta_ephemeris_type": 0,
        "meta_classification_type": "U",
        "meta_norad_cat_id": 65590,
        "meta_element_set_no": 999,
        "meta_rev_at_epoch": 177,
        "meta_bstar": 0,
        "meta_mean_motion_dot": -5e-07,
        "meta_mean_motion_ddot": 0,
        "tle_line1": "1 65590U 25206B   25339.45576640 -.00000050  00000+0  00000+0 0  9993",
        "tle_line2": "2 65590  64.7483 321.7274 0014023 304.9020 264.8431  2.13100168  1778"
      },
      "geometry": {
        "type": "Point",
        "coordinates": [
          157.23515847703973,
          -29.60060658705286
        ]
      }
    }
  ]
}